PROMETHEUS 2-3          
1 41855U 16067H   25179.54097200  .00030803  00000+0  55218-3 0  9991
2 41855  98.0675  34.2798 0005791 171.9167 188.2177 15.49878078473349
CORVUS BC2              
1 42846U 17042X   25180.01677692  .00002450  00000+0  18583-3 0  9990
2 42846  97.3760 351.6690 0013187 234.1752 125.8250 15.03045028433957
CORVUS BC1              
1 42847U 17042Y   25179.93142574  .00001845  00000+0  14012-3 0  9996
2 42847  97.3793 352.1405 0011628 205.1806 154.8855 15.03292134433966
MIRATA                  
1 43015U 17073C   25179.66635280  .00057671  00000+0  86103-3 0  9997
2 43015  97.5366  75.3680 0075682  17.9230 342.4664 15.51523490413765
MAKERSAT 0              
1 43016U 17073D   25180.21272050  .00011834  00000+0  46752-3 0  9990
2 43016  97.5159  58.2063 0147210  72.4548 289.2708 15.16109256412707
SIRION PATHFINDER-2     
1 43759U 18099B   25179.86549092  .00002845  00000+0  17852-3 0  9996
2 43759  97.4759 232.3294 0011374  82.2691 277.9830 15.10050945359227
CORVUS BC4              
1 43767U 18099K   25180.11564793  .00002294  00000+0  15082-3 0  9991
2 43767  97.4574 228.3009 0010467 130.6856 229.5284 15.08516236359103
MOVE-II                 
1 43780U 18099Y   25180.19303250  .00443234  75663-4  15085-2 0  9990
2 43780  97.4615 257.5247 0006727 229.0322 131.0369 15.89768921360907
SPACEBEE-7              
1 43816U 18099BL  25180.45807797  .00018108  00000+0  49676-3 0  9994
2 43816  97.4945 251.0716 0006261  57.5544 302.6305 15.37308619359851
SHIELDS 1               
1 43850U 18104B   25180.55878577  .00021337  00000+0  24199-3 0  9995
2 43850  85.0131  22.4664 0008289  76.8535 283.3653 15.62178285364575
SONATE                  
1 44400U 19038Q   25180.05283936  .00946056  58337-3  72146-3 0  9997
2 44400  97.6697 210.0484 0009267 202.1285 157.9602 16.15168364332695
DUCHIFAT-3              
1 44854U 19089C   25180.49855709  .00026521  00000+0  49351-3 0  9995
2 44854  36.9412 228.4023 0003671 136.5530 223.5516 15.48006009306032
M2 PATHFINDER           
1 45727U 20037E   25180.45492321  .00002185  00000+0  17001-3 0  9990
2 45727  97.8150   3.2474 0012038 261.8120  98.1739 15.02287430272494
NETSAT-4                
1 46504U 20068U   25179.82849729  .00008519  00000+0  28875-3 0  9993
2 46504  97.8459 158.7501 0008806 126.9569 233.2478 15.30793354261491
NETSAT-3                
1 46505U 20068V   25179.90526993  .00007757  00000+0  27563-3 0  9994
2 46505  97.8461 157.7264 0008363 135.9384 224.2523 15.29291529261466
NETSAT-1                
1 46506U 20068W   25180.15027159  .00005712  00000+0  23584-3 0  9992
2 46506  97.8491 155.6683 0007501 148.3081 211.8608 15.24433709261343
NETSAT-2                
1 46507U 20068X   25180.47762076  .00008221  00000+0  28194-3 0  9992
2 46507  97.8461 158.9106 0006618 144.6140 215.5539 15.30439269261539
WILDTRACKCUBE-SIMBA     
1 47941U 21022K   25180.51217201  .00018441  00000+0  37439-3 0  9993
2 47941  97.4204  85.5096 0007623 228.1278 131.9321 15.46368656236274
LEDSAT                  
1 49069U 21073D   25180.16630538  .00049392  00000+0  54066-3 0  9999
2 49069  97.3879 262.5572 0007093   7.7472 352.3895 15.63120431214499
GREENCUBE (IO-117)      
1 53109U 22080E   25175.99877741 -.00000003  00000+0  00000+0 0  9994
2 53109  70.1411  62.4576 0008684   6.6739 353.4035  6.42583727 69115
SITRO-AIS 5 (KATYS)     
1 57176U 23091L   25180.50310950  .00005639  00000+0  26419-3 0  9997
2 57176  97.5567 237.4879 0012414 258.2275 101.7567 15.20048543110607
SITRO-AIS 6 (CHIRKIN)   
1 57192U 23091AC  25180.49173273  .00005141  00000+0  24184-3 0  9993
2 57192  97.5565 237.4832 0012359 257.9671 102.0178 15.19951235110607
SITRO-AIS 8 (ANOKHIN)   
1 57193U 23091AD  25180.51234609  .00005957  00000+0  26835-3 0  9998
2 57193  97.5562 238.0513 0011788 257.0212 102.9707 15.21388051110649
SITRO-AIS 7 (FARTUSHNIY)
1 57194U 23091AE  25180.51462999  .00005495  00000+0  25907-3 0  9990
2 57194  97.5564 237.4422 0012182 258.6415 101.3451 15.19843509110601
SITRO-AIS 10 (BURDAEV)  
1 57199U 23091AK  25180.51521217  .00007550  00000+0  30703-3 0  9998
2 57199  97.5576 240.4832 0008019 235.5314 124.5166 15.24801554110794
SITRO-AIS 9 (SHCHUKIN)  
1 57201U 23091AM  25180.53542716  .00006938  00000+0  28407-3 0  9998
2 57201  97.5571 240.4108 0007991 235.8672 124.1807 15.24607545110799
SITRO-AIS 12 (SMIRENNIY)
1 57204U 23091AQ  25180.51487708  .00007281  00000+0  29616-3 0  9993
2 57204  97.5582 240.6808 0008032 228.5346 131.5202 15.24810473110806
SITRO-AIS 11 (SHEFFER)  
1 57208U 23091AU  25180.53079117  .00007312  00000+0  29557-3 0  9999
2 57208  97.5579 240.7911 0007865 228.7643 131.2918 15.25019211110811
VERONIKA                
1 58261U 23174F   25180.49342675  .00139980  00000+0  88802-3 0  9993
2 58261  97.4099 267.9494 0003774 264.4078  95.6757 15.76099490 91813
ROBUSTA-1E (ENSO)       
1 58470U 23185J   25180.49824092  .00041511  00000+0  55876-3 0  9992
2 58470  97.3721 256.2835 0005267  18.5404 341.6043 15.57738089 88132
SITRO-AIS 25            
1 59066U 24039R   25180.54870728  .00003635  00000+0  30638-3 0  9990
2 59066  95.3763 353.5954 0157260 117.3026 244.4309 14.89303041 72161
SITRO-AIS 26            
1 59067U 24039S   25180.50937921  .00003743  00000+0  31647-3 0  9997
2 59067  95.3766 353.5254 0157475 117.6707 244.0598 14.89157369 72150
SITRO-AIS 27            
1 59068U 24039T   25180.50005550  .00003967  00000+0  33295-3 0  9991
2 59068  95.3766 353.6500 0156776 117.0239 244.7087 14.89481719 72163
SITRO-AIS 28            
1 59071U 24039U   25180.55374423  .00003812  00000+0  31984-3 0  9990
2 59071  95.3766 353.7143 0156612 116.7619 244.9726 14.89522118 72170
GRBBETA                 
1 60237U 24128C   25179.89998513  .00002630  00000+0  20555-3 0  9991
2 60237  61.9920  12.1873 0053347  61.9043 298.7426 15.02774476 53104
OOV-CUBE (TUBSAT-30)    
1 60240U 24128F   25179.99109496  .00001582  00000+0  13835-3 0  9998
2 60240  61.9958  14.9401 0053532  58.8217 301.8105 15.00347492 53078
ROBUSTA-3A (MEDITERRAN*)
1 60243U 24128J   25179.97917501  .00004411  00000+0  31606-3 0  9993
2 60243  61.9894  10.8084 0052171  55.8530 304.7494 15.04880932 53141
LASARSAT                
1 62391U 24247Q   25179.36287427  .00008972  00000+0  34938-3 0  9998
2 62391  44.9821  57.6038 0008053 165.2238 194.8881 15.26348357 28938
CROCUBE                 
1 62394U 24247T   25180.33613304  .00009080  00000+0  35102-3 0  9992
2 62394  44.9773  52.1678 0008470 173.1314 186.9685 15.26573029 29080
